[
  {
    "COMMENT": "GENERATED VIA SPACETRACK.ORG API",
    "ORIGINATOR": "18 SPCS",
    "NORAD_CAT_ID": "26997",
    "OBJECT_NAME": "JASON",
    "OBJECT_TYPE": "PAYLOAD",
    "CLASSIFICATION_TYPE": "U",
    "INTLDES": "01055A",
    "EPOCH": "2023-06-15 11:27:27",
    "EPOCH_MICROSECONDS": "319392",
    "MEAN_MOTION": "12.84022052",
    "ECCENTRICITY": "0.0006972",
    "INCLINATION": "66.0381",
    "RA_OF_ASC_NODE": "206.7772",
    "ARG_OF_PERICENTER": "265.7083",
    "MEAN_ANOMALY": "192.6104",
    "EPHEMERIS_TYPE": "0",
    "ELEMENT_SET_NO": "999",
    "REV_AT_EPOCH": "769",
    "BSTAR": "0.00013514",
    "MEAN_MOTION_DOT": "-0.00000029",
    "MEAN_MOTION_DDOT": "0",
    "FILE": "3933820",
    "TLE_LINE0": "0 JASON",
    "TLE_LINE1": "1 26997U 01055A   23166.47739953 -.00000029  00000-0  13514-3 0  9998",
    "TLE_LINE2": "2 26997  66.0381 206.7772 0006972 265.7083 192.6104 12.84022052  7696",
    "OBJECT_ID": "2001-055A",
    "OBJECT_NUMBER": "26997",
    "SEMIMAJOR_AXIS": "7703.478",
    "PERIOD": "112.148",
    "APOGEE": "1330.714",
    "PERIGEE": "1319.972",
    "DECAYED": "0"
  },
  {
    "COMMENT": "GENERATED VIA SPACETRACK.ORG API",
    "ORIGINATOR": "18 SPCS",
    "NORAD_CAT_ID": "26997",
    "OBJECT_NAME": "JASON",
    "OBJECT_TYPE": "PAYLOAD",
    "CLASSIFICATION_TYPE": "U",
    "INTLDES": "01055A",
    "EPOCH": "2023-06-16 13:56:26",
    "EPOCH_MICROSECONDS": "939040",
    "MEAN_MOTION": "12.84022171",
    "ECCENTRICITY": "0.0006961",
    "INCLINATION": "66.038",
    "RA_OF_ASC_NODE": "204.4722",
    "ARG_OF_PERICENTER": "265.7892",
    "MEAN_ANOMALY": "252.7857",
    "EPHEMERIS_TYPE": "0",
    "ELEMENT_SET_NO": "999",
    "REV_AT_EPOCH": "783",
    "BSTAR": "0.00018668",
    "MEAN_MOTION_DOT": "-0.00000017",
    "MEAN_MOTION_DDOT": "0",
    "FILE": "3934686",
    "TLE_LINE0": "0 JASON",
    "TLE_LINE1": "1 26997U 01055A   23167.58086735 -.00000017  00000-0  18668-3 0  9996",
    "TLE_LINE2": "2 26997  66.0380 204.4722 0006961 265.7892 252.7857 12.84022171  7832",
    "OBJECT_ID": "2001-055A",
    "OBJECT_NUMBER": "26997",
    "SEMIMAJOR_AXIS": "7703.478",
    "PERIOD": "112.148",
    "APOGEE": "1330.705",
    "PERIGEE": "1319.980",
    "DECAYED": "0"
  },
  {
    "COMMENT": "GENERATED VIA SPACETRACK.ORG API",
    "ORIGINATOR": "18 SPCS",
    "NORAD_CAT_ID": "26997",
    "OBJECT_NAME": "JASON",
    "OBJECT_TYPE": "PAYLOAD",
    "CLASSIFICATION_TYPE": "U",
    "INTLDES": "01055A",
    "EPOCH": "2023-06-16 13:56:26",
    "EPOCH_MICROSECONDS": "939040",
    "MEAN_MOTION": "12.84022171",
    "ECCENTRICITY": "0.0006961",
    "INCLINATION": "66.038",
    "RA_OF_ASC_NODE": "204.4722",
    "ARG_OF_PERICENTER": "265.7892",
    "MEAN_ANOMALY": "252.7857",
    "EPHEMERIS_TYPE": "0",
    "ELEMENT_SET_NO": "999",
    "REV_AT_EPOCH": "807",
    "BSTAR": "0.00018668",
    "MEAN_MOTION_DOT": "-0.00000017",
    "MEAN_MOTION_DDOT": "0",
    "FILE": "3934736",
    "TLE_LINE0": "0 JASON",
    "TLE_LINE1": "1 26997U 01055A   23167.58086735 -.00000017  00000-0  18668-3 0  9996",
    "TLE_LINE2": "2 26997  66.0380 204.4722 0006961 265.7892 252.7857 12.84022171  8079",
    "OBJECT_ID": "2001-055A",
    "OBJECT_NUMBER": "26997",
    "SEMIMAJOR_AXIS": "7703.478",
    "PERIOD": "112.148",
    "APOGEE": "1330.705",
    "PERIGEE": "1319.980",
    "DECAYED": "0"
  },
  {
    "COMMENT": "GENERATED VIA SPACETRACK.ORG API",
    "ORIGINATOR": "18 SPCS",
    "NORAD_CAT_ID": "26997",
    "OBJECT_NAME": "JASON",
    "OBJECT_TYPE": "PAYLOAD",
    "CLASSIFICATION_TYPE": "U",
    "INTLDES": "01055A",
    "EPOCH": "2023-06-16 21:29:28",
    "EPOCH_MICROSECONDS": "196736",
    "MEAN_MOTION": "12.84022193",
    "ECCENTRICITY": "0.000696",
    "INCLINATION": "66.038",
    "RA_OF_ASC_NODE": "203.8151",
    "ARG_OF_PERICENTER": "265.809",
    "MEAN_ANOMALY": "266.8455",
    "EPHEMERIS_TYPE": "0",
    "ELEMENT_SET_NO": "999",
    "REV_AT_EPOCH": "787",
    "BSTAR": "0.00018714",
    "MEAN_MOTION_DOT": "-0.00000017",
    "MEAN_MOTION_DDOT": "0",
    "FILE": "3934949",
    "TLE_LINE0": "0 JASON",
    "TLE_LINE1": "1 26997U 01055A   23167.89546524 -.00000017  00000-0  18714-3 0  9999",
    "TLE_LINE2": "2 26997  66.0380 203.8151 0006960 265.8090 266.8455 12.84022193  7879",
    "OBJECT_ID": "2001-055A",
    "OBJECT_NUMBER": "26997",
    "SEMIMAJOR_AXIS": "7703.478",
    "PERIOD": "112.148",
    "APOGEE": "1330.704",
    "PERIGEE": "1319.981",
    "DECAYED": "0"
  },
  {
    "COMMENT": "GENERATED VIA SPACETRACK.ORG API",
    "ORIGINATOR": "18 SPCS",
    "NORAD_CAT_ID": "26997",
    "OBJECT_NAME": "JASON",
    "OBJECT_TYPE": "PAYLOAD",
    "CLASSIFICATION_TYPE": "U",
    "INTLDES": "01055A",
    "EPOCH": "2023-06-17 09:44:37",
    "EPOCH_MICROSECONDS": "695840",
    "MEAN_MOTION": "12.84022235",
    "ECCENTRICITY": "0.0006965",
    "INCLINATION": "66.038",
    "RA_OF_ASC_NODE": "202.7487",
    "ARG_OF_PERICENTER": "265.8322",
    "MEAN_ANOMALY": "106.4895",
    "EPHEMERIS_TYPE": "0",
    "ELEMENT_SET_NO": "999",
    "REV_AT_EPOCH": "794",
    "BSTAR": "0.00018902",
    "MEAN_MOTION_DOT": "-0.00000016",
    "MEAN_MOTION_DDOT": "0",
    "FILE": "3935591",
    "TLE_LINE0": "0 JASON",
    "TLE_LINE1": "1 26997U 01055A   23168.40599185 -.00000016  00000-0  18902-3 0  9996",
    "TLE_LINE2": "2 26997  66.0380 202.7487 0006965 265.8322 106.4895 12.84022235  7944",
    "OBJECT_ID": "2001-055A",
    "OBJECT_NUMBER": "26997",
    "SEMIMAJOR_AXIS": "7703.477",
    "PERIOD": "112.148",
    "APOGEE": "1330.708",
    "PERIGEE": "1319.977",
    "DECAYED": "0"
  },
  {
    "COMMENT": "GENERATED VIA SPACETRACK.ORG API",
    "ORIGINATOR": "18 SPCS",
    "NORAD_CAT_ID": "26997",
    "OBJECT_NAME": "JASON",
    "OBJECT_TYPE": "PAYLOAD",
    "CLASSIFICATION_TYPE": "U",
    "INTLDES": "01055A",
    "EPOCH": "2023-06-17 19:55:30",
    "EPOCH_MICROSECONDS": "239040",
    "MEAN_MOTION": "12.84022248",
    "ECCENTRICITY": "0.0006964",
    "INCLINATION": "66.0379",
    "RA_OF_ASC_NODE": "201.8626",
    "ARG_OF_PERICENTER": "265.887",
    "MEAN_ANOMALY": "267.1871",
    "EPHEMERIS_TYPE": "0",
    "ELEMENT_SET_NO": "999",
    "REV_AT_EPOCH": "799",
    "BSTAR": "0.00016894",
    "MEAN_MOTION_DOT": "-0.00000021",
    "MEAN_MOTION_DDOT": "0",
    "FILE": "3935891",
    "TLE_LINE0": "0 JASON",
    "TLE_LINE1": "1 26997U 01055A   23168.83021110 -.00000021  00000-0  16894-3 0  9995",
    "TLE_LINE2": "2 26997  66.0379 201.8626 0006964 265.8870 267.1871 12.84022248  7992",
    "OBJECT_ID": "2001-055A",
    "OBJECT_NUMBER": "26997",
    "SEMIMAJOR_AXIS": "7703.477",
    "PERIOD": "112.148",
    "APOGEE": "1330.707",
    "PERIGEE": "1319.978",
    "DECAYED": "0"
  },
  {
    "COMMENT": "GENERATED VIA SPACETRACK.ORG API",
    "ORIGINATOR": "18 SPCS",
    "NORAD_CAT_ID": "26997",
    "OBJECT_NAME": "JASON",
    "OBJECT_TYPE": "PAYLOAD",
    "CLASSIFICATION_TYPE": "U",
    "INTLDES": "01055A",
    "EPOCH": "2023-06-18 12:42:55",
    "EPOCH_MICROSECONDS": "276416",
    "MEAN_MOTION": "12.84022328",
    "ECCENTRICITY": "0.0006966",
    "INCLINATION": "66.0379",
    "RA_OF_ASC_NODE": "200.4013",
    "ARG_OF_PERICENTER": "265.9157",
    "MEAN_ANOMALY": "260.7065",
    "EPHEMERIS_TYPE": "0",
    "ELEMENT_SET_NO": "999",
    "REV_AT_EPOCH": "808",
    "BSTAR": "0.00017095",
    "MEAN_MOTION_DOT": "-0.0000002",
    "MEAN_MOTION_DDOT": "0",
    "FILE": "3936420",
    "TLE_LINE0": "0 JASON",
    "TLE_LINE1": "1 26997U 01055A   23169.52980644 -.00000020  00000-0  17095-3 0  9991",
    "TLE_LINE2": "2 26997  66.0379 200.4013 0006966 265.9157 260.7065 12.84022328  8082",
    "OBJECT_ID": "2001-055A",
    "OBJECT_NUMBER": "26997",
    "SEMIMAJOR_AXIS": "7703.477",
    "PERIOD": "112.148",
    "APOGEE": "1330.708",
    "PERIGEE": "1319.976",
    "DECAYED": "0"
  },
  {
    "COMMENT": "GENERATED VIA SPACETRACK.ORG API",
    "ORIGINATOR": "18 SPCS",
    "NORAD_CAT_ID": "26997",
    "OBJECT_NAME": "JASON",
    "OBJECT_TYPE": "PAYLOAD",
    "CLASSIFICATION_TYPE": "U",
    "INTLDES": "01055A",
    "EPOCH": "2023-06-18 20:13:17",
    "EPOCH_MICROSECONDS": "19840",
    "MEAN_MOTION": "12.84022358",
    "ECCENTRICITY": "0.0006965",
    "INCLINATION": "66.0378",
    "RA_OF_ASC_NODE": "199.748",
    "ARG_OF_PERICENTER": "265.9521",
    "MEAN_ANOMALY": "266.2167",
    "EPHEMERIS_TYPE": "0",
    "ELEMENT_SET_NO": "999",
    "REV_AT_EPOCH": "836",
    "BSTAR": "0.00015823",
    "MEAN_MOTION_DOT": "-0.00000024",
    "MEAN_MOTION_DDOT": "0",
    "FILE": "3936542",
    "TLE_LINE0": "0 JASON",
    "TLE_LINE1": "1 26997U 01055A   23169.84255810 -.00000024  00000-0  15823-3 0  9997",
    "TLE_LINE2": "2 26997  66.0378 199.7480 0006965 265.9521 266.2167 12.84022358  8361",
    "OBJECT_ID": "2001-055A",
    "OBJECT_NUMBER": "26997",
    "SEMIMAJOR_AXIS": "7703.477",
    "PERIOD": "112.148",
    "APOGEE": "1330.707",
    "PERIGEE": "1319.976",
    "DECAYED": "0"
  },
  {
    "COMMENT": "GENERATED VIA SPACETRACK.ORG API",
    "ORIGINATOR": "18 SPCS",
    "NORAD_CAT_ID": "26997",
    "OBJECT_NAME": "JASON",
    "OBJECT_TYPE": "PAYLOAD",
    "CLASSIFICATION_TYPE": "U",
    "INTLDES": "01055A",
    "EPOCH": "2023-06-19 08:28:24",
    "EPOCH_MICROSECONDS": "911040",
    "MEAN_MOTION": "12.84022407",
    "ECCENTRICITY": "0.000697",
    "INCLINATION": "66.0378",
    "RA_OF_ASC_NODE": "198.6816",
    "ARG_OF_PERICENTER": "265.9497",
    "MEAN_ANOMALY": "105.8008",
    "EPHEMERIS_TYPE": "0",
    "ELEMENT_SET_NO": "999",
    "REV_AT_EPOCH": "819",
    "BSTAR": "0.0001435",
    "MEAN_MOTION_DOT": "-0.00000027",
    "MEAN_MOTION_DDOT": "0",
    "FILE": "3937338",
    "TLE_LINE0": "0 JASON",
    "TLE_LINE1": "1 26997U 01055A   23170.35306610 -.00000027  00000-0  14350-3 0  9997",
    "TLE_LINE2": "2 26997  66.0378 198.6816 0006970 265.9497 105.8008 12.84022407  8198",
    "OBJECT_ID": "2001-055A",
    "OBJECT_NUMBER": "26997",
    "SEMIMAJOR_AXIS": "7703.477",
    "PERIOD": "112.148",
    "APOGEE": "1330.711",
    "PERIGEE": "1319.972",
    "DECAYED": "0"
  }
]